<?xml version="1.0" encoding="UTF-8"?>
<ndm xmlns:xsi="http://www.w3.org/2001/XMLSchema-instance" xsi:noNamespaceSchemaLocation="https://sanaregistry.org/r/ndmxml_unqualified/ndmxml-2.0.0-master-2.0.xsd">
  <omm id="CCSDS_OMM_VERS" version="2.0">
    <header>
      <CREATION_DATE/>
      <ORIGINATOR/>
    </header>
    <body>
      <segment>
        <metadata>
          <OBJECT_NAME>CSS (MENGTIAN)</OBJECT_NAME>
          <OBJECT_ID>2022-143A</OBJECT_ID>
          <CENTER_NAME>EARTH</CENTER_NAME>
          <REF_FRAME>TEME</REF_FRAME>
          <TIME_SYSTEM>UTC</TIME_SYSTEM>
          <MEAN_ELEMENT_THEORY>SGP4</MEAN_ELEMENT_THEORY>
        </metadata>
        <data>
          <meanElements>
            <EPOCH>2024-01-13T07:06:11.928960</EPOCH>
            <MEAN_MOTION>15.62791630</MEAN_MOTION>
            <ECCENTRICITY>.0004614</ECCENTRICITY>
            <INCLINATION>41.4699</INCLINATION>
            <RA_OF_ASC_NODE>315.4730</RA_OF_ASC_NODE>
            <ARG_OF_PERICENTER>104.5678</ARG_OF_PERICENTER>
            <MEAN_ANOMALY>255.5673</MEAN_ANOMALY>
          </meanElements>
          <tleParameters>
            <EPHEMERIS_TYPE>0</EPHEMERIS_TYPE>
            <CLASSIFICATION_TYPE>U</CLASSIFICATION_TYPE>
            <NORAD_CAT_ID>54216</NORAD_CAT_ID>
            <ELEMENT_SET_NO>999</ELEMENT_SET_NO>
            <REV_AT_EPOCH>15469</REV_AT_EPOCH>
            <BSTAR>.4921E-3</BSTAR>
            <MEAN_MOTION_DOT>.45535E-3</MEAN_MOTION_DOT>
            <MEAN_MOTION_DDOT>0</MEAN_MOTION_DDOT>
          </tleParameters>
        </data>
      </segment>
    </body>
  </omm>
  <omm id="CCSDS_OMM_VERS" version="2.0">
    <header>
      <CREATION_DATE/>
      <ORIGINATOR/>
    </header>
    <body>
      <segment>
        <metadata>
          <OBJECT_NAME>TIANZHOU-6</OBJECT_NAME>
          <OBJECT_ID>2023-063A</OBJECT_ID>
          <CENTER_NAME>EARTH</CENTER_NAME>
          <REF_FRAME>TEME</REF_FRAME>
          <TIME_SYSTEM>UTC</TIME_SYSTEM>
          <MEAN_ELEMENT_THEORY>SGP4</MEAN_ELEMENT_THEORY>
        </metadata>
        <data>
          <meanElements>
            <EPOCH>2024-01-13T07:06:11.928960</EPOCH>
            <MEAN_MOTION>15.62791630</MEAN_MOTION>
            <ECCENTRICITY>.0004614</ECCENTRICITY>
            <INCLINATION>41.4699</INCLINATION>
            <RA_OF_ASC_NODE>315.4730</RA_OF_ASC_NODE>
            <ARG_OF_PERICENTER>104.5678</ARG_OF_PERICENTER>
            <MEAN_ANOMALY>255.5673</MEAN_ANOMALY>
          </meanElements>
          <tleParameters>
            <EPHEMERIS_TYPE>0</EPHEMERIS_TYPE>
            <CLASSIFICATION_TYPE>U</CLASSIFICATION_TYPE>
            <NORAD_CAT_ID>56446</NORAD_CAT_ID>
            <ELEMENT_SET_NO>999</ELEMENT_SET_NO>
            <REV_AT_EPOCH>15469</REV_AT_EPOCH>
            <BSTAR>.4921E-3</BSTAR>
            <MEAN_MOTION_DOT>.45535E-3</MEAN_MOTION_DOT>
            <MEAN_MOTION_DDOT>0</MEAN_MOTION_DDOT>
          </tleParameters>
        </data>
      </segment>
    </body>
  </omm>
  <omm id="CCSDS_OMM_VERS" version="2.0">
    <header>
      <CREATION_DATE/>
      <ORIGINATOR/>
    </header>
    <body>
      <segment>
        <metadata>
          <OBJECT_NAME>ISS DEB</OBJECT_NAME>
          <OBJECT_ID>1998-067VP</OBJECT_ID>
          <CENTER_NAME>EARTH</CENTER_NAME>
          <REF_FRAME>TEME</REF_FRAME>
          <TIME_SYSTEM>UTC</TIME_SYSTEM>
          <MEAN_ELEMENT_THEORY>SGP4</MEAN_ELEMENT_THEORY>
        </metadata>
        <data>
          <meanElements>
            <EPOCH>2024-01-13T08:45:38.969568</EPOCH>
            <MEAN_MOTION>15.67420059</MEAN_MOTION>
            <ECCENTRICITY>.0004616</ECCENTRICITY>
            <INCLINATION>51.6350</INCLINATION>
            <RA_OF_ASC_NODE>355.9908</RA_OF_ASC_NODE>
            <ARG_OF_PERICENTER>94.5074</ARG_OF_PERICENTER>
            <MEAN_ANOMALY>265.6450</MEAN_ANOMALY>
          </meanElements>
          <tleParameters>
            <EPHEMERIS_TYPE>0</EPHEMERIS_TYPE>
            <CLASSIFICATION_TYPE>U</CLASSIFICATION_TYPE>
            <NORAD_CAT_ID>57212</NORAD_CAT_ID>
            <ELEMENT_SET_NO>999</ELEMENT_SET_NO>
            <REV_AT_EPOCH>3147</REV_AT_EPOCH>
            <BSTAR>.64377E-3</BSTAR>
            <MEAN_MOTION_DOT>.71174E-3</MEAN_MOTION_DOT>
            <MEAN_MOTION_DDOT>0</MEAN_MOTION_DDOT>
          </tleParameters>
        </data>
      </segment>
    </body>
  </omm>
  <omm id="CCSDS_OMM_VERS" version="2.0">
    <header>
      <CREATION_DATE/>
      <ORIGINATOR/>
    </header>
    <body>
      <segment>
        <metadata>
          <OBJECT_NAME>1998-067VR</OBJECT_NAME>
          <OBJECT_ID>1998-067VR</OBJECT_ID>
          <CENTER_NAME>EARTH</CENTER_NAME>
          <REF_FRAME>TEME</REF_FRAME>
          <TIME_SYSTEM>UTC</TIME_SYSTEM>
          <MEAN_ELEMENT_THEORY>SGP4</MEAN_ELEMENT_THEORY>
        </metadata>
        <data>
          <meanElements>
            <EPOCH>2024-01-14T03:07:12.546048</EPOCH>
            <MEAN_MOTION>15.95552177</MEAN_MOTION>
            <ECCENTRICITY>.0005579</ECCENTRICITY>
            <INCLINATION>51.6272</INCLINATION>
            <RA_OF_ASC_NODE>342.2292</RA_OF_ASC_NODE>
            <ARG_OF_PERICENTER>101.7017</ARG_OF_PERICENTER>
            <MEAN_ANOMALY>258.4617</MEAN_ANOMALY>
          </meanElements>
          <tleParameters>
            <EPHEMERIS_TYPE>0</EPHEMERIS_TYPE>
            <CLASSIFICATION_TYPE>U</CLASSIFICATION_TYPE>
            <NORAD_CAT_ID>57313</NORAD_CAT_ID>
            <ELEMENT_SET_NO>999</ELEMENT_SET_NO>
            <REV_AT_EPOCH>3003</REV_AT_EPOCH>
            <BSTAR>.1297E-2</BSTAR>
            <MEAN_MOTION_DOT>.530318E-2</MEAN_MOTION_DOT>
            <MEAN_MOTION_DDOT>.12642E-3</MEAN_MOTION_DDOT>
          </tleParameters>
        </data>
      </segment>
    </body>
  </omm>
  <omm id="CCSDS_OMM_VERS" version="2.0">
    <header>
      <CREATION_DATE/>
      <ORIGINATOR/>
    </header>
    <body>
      <segment>
        <metadata>
          <OBJECT_NAME>MOONLIGHTER</OBJECT_NAME>
          <OBJECT_ID>1998-067VU</OBJECT_ID>
          <CENTER_NAME>EARTH</CENTER_NAME>
          <REF_FRAME>TEME</REF_FRAME>
          <TIME_SYSTEM>UTC</TIME_SYSTEM>
          <MEAN_ELEMENT_THEORY>SGP4</MEAN_ELEMENT_THEORY>
        </metadata>
        <data>
          <meanElements>
            <EPOCH>2024-01-14T02:58:25.769568</EPOCH>
            <MEAN_MOTION>15.81161268</MEAN_MOTION>
            <ECCENTRICITY>.0005661</ECCENTRICITY>
            <INCLINATION>51.6306</INCLINATION>
            <RA_OF_ASC_NODE>345.2517</RA_OF_ASC_NODE>
            <ARG_OF_PERICENTER>122.3014</ARG_OF_PERICENTER>
            <MEAN_ANOMALY>237.8537</MEAN_ANOMALY>
          </meanElements>
          <tleParameters>
            <EPHEMERIS_TYPE>0</EPHEMERIS_TYPE>
            <CLASSIFICATION_TYPE>U</CLASSIFICATION_TYPE>
            <NORAD_CAT_ID>57316</NORAD_CAT_ID>
            <ELEMENT_SET_NO>999</ELEMENT_SET_NO>
            <REV_AT_EPOCH>2998</REV_AT_EPOCH>
            <BSTAR>.19598E-2</BSTAR>
            <MEAN_MOTION_DOT>.411463E-2</MEAN_MOTION_DOT>
            <MEAN_MOTION_DDOT>0</MEAN_MOTION_DDOT>
          </tleParameters>
        </data>
      </segment>
    </body>
  </omm>
  <omm id="CCSDS_OMM_VERS" version="2.0">
    <header>
      <CREATION_DATE/>
      <ORIGINATOR/>
    </header>
    <body>
      <segment>
        <metadata>
          <OBJECT_NAME>PROGRESS-MS 24</OBJECT_NAME>
          <OBJECT_ID>2023-125A</OBJECT_ID>
          <CENTER_NAME>EARTH</CENTER_NAME>
          <REF_FRAME>TEME</REF_FRAME>
          <TIME_SYSTEM>UTC</TIME_SYSTEM>
          <MEAN_ELEMENT_THEORY>SGP4</MEAN_ELEMENT_THEORY>
        </metadata>
        <data>
          <meanElements>
            <EPOCH>2024-01-13T11:15:03.373056</EPOCH>
            <MEAN_MOTION>15.49372261</MEAN_MOTION>
            <ECCENTRICITY>.0004859</ECCENTRICITY>
            <INCLINATION>51.6419</INCLINATION>
            <RA_OF_ASC_NODE>6.9213</RA_OF_ASC_NODE>
            <ARG_OF_PERICENTER>85.9357</ARG_OF_PERICENTER>
            <MEAN_ANOMALY>50.2079</MEAN_ANOMALY>
          </meanElements>
          <tleParameters>
            <EPHEMERIS_TYPE>0</EPHEMERIS_TYPE>
            <CLASSIFICATION_TYPE>U</CLASSIFICATION_TYPE>
            <NORAD_CAT_ID>57691</NORAD_CAT_ID>
            <ELEMENT_SET_NO>999</ELEMENT_SET_NO>
            <REV_AT_EPOCH>43440</REV_AT_EPOCH>
            <BSTAR>.11034E-2</BSTAR>
            <MEAN_MOTION_DOT>.6164E-3</MEAN_MOTION_DOT>
            <MEAN_MOTION_DDOT>0</MEAN_MOTION_DDOT>
          </tleParameters>
        </data>
      </segment>
    </body>
  </omm>
  
</ndm>

