CSS (MENGTIAN)          
1 54216U 22143A   24013.29597140  .00045535  00000+0  49210-3 0  9997
2 54216  41.4699 315.4730 0004614 104.5678 255.5673 15.62791630154690
TIANZHOU-6              
1 56446U 23063A   24013.29597140  .00045535  00000+0  49210-3 0  9996
2 56446  41.4699 315.4730 0004614 104.5678 255.5673 15.62791630154697
ISS DEB                 
1 57212U 98067VP  24013.36503437  .00071174  00000+0  64377-3 0  9997
2 57212  51.6350 355.9908 0004616  94.5074 265.6450 15.67420059 31476
1998-067VR              
1 57313U 98067VR  24014.13000632  .00530318  12642-3  12970-2 0  9994
2 57313  51.6272 342.2292 0005579 101.7017 258.4617 15.95552177 30037
MOONLIGHTER             
1 57316U 98067VU  24014.12390937  .00411463  00000+0  19598-2 0  9999
2 57316  51.6306 345.2517 0005661 122.3014 237.8537 15.81161268 29985
PROGRESS-MS 24          
1 57691U 23125A   24013.46878904  .00061640  00000+0  11034-2 0  9994
2 57691  51.6419   6.9213 0004859  85.9357  50.2079 15.49372261434408
